{
  "type": "FeatureCollection",
  "features": [
    {
      "type": "Feature",
      "properties": {
        "norad_id": 65731,
        "name": "1998-067XK",
        "group": "stations",
        "lat": 13.27810478393662,
        "lon": -93.51793531156515,
        "alt_km": 368.00736504514316,
        "timestamp": "2025-12-20T14:38:00.719039+00:00",
        "meta_object_name": "1998-067XK",
        "meta_object_id": "1998-067XK",
        "meta_epoch": "2025-12-20T00:10:02.026560",
        "meta_mean_motion": 15.67078773,
        "meta_eccentricity": 0.00047639,
        "meta_inclination": 51.6294,
        "meta_ra_of_asc_node": 100.3244,
        "meta_arg_of_pericenter": 292.7833,
        "meta_mean_anomaly": 67.2659,
        "meta_ephemeris_type": 0,
        "meta_classification_type": "U",
        "meta_norad_cat_id": 65731,
        "meta_element_set_no": 999,
        "meta_rev_at_epoch": 1428,
        "meta_bstar": 0.00070175188,
        "meta_mean_motion_dot": 0.00076617,
        "meta_mean_motion_ddot": 0,
        "tle_line1": "1 65731U 98067XK  25354.00696790  .00076617  00000+0  70175-3 0  9997",
        "tle_line2": "2 65731  51.6294 100.3244 0004763 292.7833  67.2659 15.67078773 14280"
      },
      "geometry": {
        "type": "Point",
        "coordinates": [
          -93.51793531156515,
          13.27810478393662
        ]
      }
    },
    {
      "type": "Feature",
      "properties": {
        "norad_id": 65732,
        "name": "RSP-03",
        "group": "stations",
        "lat": -33.05724755491694,
        "lon": -52.58913856720919,
        "alt_km": 360.23071727742354,
        "timestamp": "2025-12-20T14:38:00.719050+00:00",
        "meta_object_name": "RSP-03",
        "meta_object_id": "1998-067XL",
        "meta_epoch": "2025-12-19T10:11:34.022112",
        "meta_mean_motion": 15.70283101,
        "meta_eccentricity": 0.0005658,
        "meta_inclination": 51.6265,
        "meta_ra_of_asc_node": 102.4221,
        "meta_arg_of_pericenter": 294.5755,
        "meta_mean_anomaly": 65.4652,
        "meta_ephemeris_type": 0,
        "meta_classification_type": "U",
        "meta_norad_cat_id": 65732,
        "meta_element_set_no": 999,
        "meta_rev_at_epoch": 1421,
        "meta_bstar": 0.00084699,
        "meta_mean_motion_dot": 0.00106087,
        "meta_mean_motion_ddot": 0,
        "tle_line1": "1 65732U 98067XL  25353.42469933  .00106087  00000+0  84699-3 0  9991",
        "tle_line2": "2 65732  51.6265 102.4221 0005658 294.5755  65.4652 15.70283101 14217"
      },
      "geometry": {
        "type": "Point",
        "coordinates": [
          -52.58913856720919,
          -33.05724755491694
        ]
      }
    },
    {
      "type": "Feature",
      "properties": {
        "norad_id": 65733,
        "name": "GHS-01",
        "group": "stations",
        "lat": -17.026300146685074,
        "lon": 80.57993124613864,
        "alt_km": 332.8729387289641,
        "timestamp": "2025-12-20T14:38:00.719060+00:00",
        "meta_object_name": "GHS-01",
        "meta_object_id": "1998-067XM",
        "meta_epoch": "2025-12-19T17:26:50.755776",
        "meta_mean_motion": 15.77819432,
        "meta_eccentricity": 0.00083434,
        "meta_inclination": 51.6273,
        "meta_ra_of_asc_node": 99.1864,
        "meta_arg_of_pericenter": 325.0318,
        "meta_mean_anomaly": 35.0134,
        "meta_ephemeris_type": 0,
        "meta_classification_type": "U",
        "meta_norad_cat_id": 65733,
        "meta_element_set_no": 999,
        "meta_rev_at_epoch": 1428,
        "meta_bstar": 0.0010728211,
        "meta_mean_motion_dot": 0.00188446,
        "meta_mean_motion_ddot": 0,
        "tle_line1": "1 65733U 98067XM  25353.72697634  .00188446  00000+0  10728-2 0  9996",
        "tle_line2": "2 65733  51.6273  99.1864 0008343 325.0318  35.0134 15.77819432 14285"
      },
      "geometry": {
        "type": "Point",
        "coordinates": [
          80.57993124613864,
          -17.026300146685074
        ]
      }
    },
    {
      "type": "Feature",
      "properties": {
        "norad_id": 65941,
        "name": "YOTSUBA-KULOVER",
        "group": "stations",
        "lat": 50.67541408034777,
        "lon": -154.89737499152574,
        "alt_km": 380.2072216690949,
        "timestamp": "2025-12-20T14:38:00.719071+00:00",
        "meta_object_name": "YOTSUBA-KULOVER",
        "meta_object_id": "1998-067XN",
        "meta_epoch": "2025-12-19T10:32:35.848320",
        "meta_mean_motion": 15.60329664,
        "meta_eccentricity": 0.00017537,
        "meta_inclination": 51.6289,
        "meta_ra_of_asc_node": 106.2819,
        "meta_arg_of_pericenter": 320.2615,
        "meta_mean_anomaly": 39.8249,
        "meta_ephemeris_type": 0,
        "meta_classification_type": "U",
        "meta_norad_cat_id": 65941,
        "meta_element_set_no": 999,
        "meta_rev_at_epoch": 1090,
        "meta_bstar": 0.0006131661,
        "meta_mean_motion_dot": 0.00050991,
        "meta_mean_motion_ddot": 0,
        "tle_line1": "1 65941U 98067XN  25353.43930380  .00050991  00000+0  61317-3 0  9997",
        "tle_line2": "2 65941  51.6289 106.2819 0001753 320.2615  39.8249 15.60329664 10907"
      },
      "geometry": {
        "type": "Point",
        "coordinates": [
          -154.89737499152574,
          50.67541408034777
        ]
      }
    },
    {
      "type": "Feature",
      "properties": {
        "norad_id": 65942,
        "name": "BOTAN",
        "group": "stations",
        "lat": 5.155155374474062,
        "lon": -84.61362320286241,
        "alt_km": 376.1691599144324,
        "timestamp": "2025-12-20T14:38:00.719081+00:00",
        "meta_object_name": "BOTAN",
        "meta_object_id": "1998-067XP",
        "meta_epoch": "2025-12-20T04:41:49.337088",
        "meta_mean_motion": 15.64374422,
        "meta_eccentricity": 0.00029517,
        "meta_inclination": 51.6284,
        "meta_ra_of_asc_node": 101.583,
        "meta_arg_of_pericenter": 302.22,
        "meta_mean_anomaly": 57.8508,
        "meta_ephemeris_type": 0,
        "meta_classification_type": "U",
        "meta_norad_cat_id": 65942,
        "meta_element_set_no": 999,
        "meta_rev_at_epoch": 1103,
        "meta_bstar": 0.00087028097,
        "meta_mean_motion_dot": 0.0008541,
        "meta_mean_motion_ddot": 0,
        "tle_line1": "1 65942U 98067XP  25354.19570992  .00085410  00000+0  87028-3 0  9992",
        "tle_line2": "2 65942  51.6284 101.5830 0002951 302.2200  57.8508 15.64374422 11034"
      },
      "geometry": {
        "type": "Point",
        "coordinates": [
          -84.61362320286241,
          5.155155374474062
        ]
      }
    },
    {
      "type": "Feature",
      "properties": {
        "norad_id": 65943,
        "name": "E-KAGAKU-1",
        "group": "stations",
        "lat": 50.756043574452484,
        "lon": -155.52433259580616,
        "alt_km": 380.0200635017691,
        "timestamp": "2025-12-20T14:38:00.719092+00:00",
        "meta_object_name": "E-KAGAKU-1",
        "meta_object_id": "1998-067XQ",
        "meta_epoch": "2025-12-18T08:24:49.666176",
        "meta_mean_motion": 15.60193795,
        "meta_eccentricity": 0.00013451,
        "meta_inclination": 51.6302,
        "meta_ra_of_asc_node": 111.7666,
        "meta_arg_of_pericenter": 249.8249,
        "meta_mean_anomaly": 110.26,
        "meta_ephemeris_type": 0,
        "meta_classification_type": "U",
        "meta_norad_cat_id": 65943,
        "meta_element_set_no": 999,
        "meta_rev_at_epoch": 1073,
        "meta_bstar": 0.00084619625,
        "meta_mean_motion_dot": 0.00070368,
        "meta_mean_motion_ddot": 0,
        "tle_line1": "1 65943U 98067XQ  25352.35057484  .00070368  00000+0  84620-3 0  9996",
        "tle_line2": "2 65943  51.6302 111.7666 0001345 249.8249 110.2600 15.60193795 10732"
      },
      "geometry": {
        "type": "Point",
        "coordinates": [
          -155.52433259580616,
          50.756043574452484
        ]
      }
    },
    {
      "type": "Feature",
      "properties": {
        "norad_id": 66052,
        "name": "HRC MONOBLOCK CAMERA",
        "group": "stations",
        "lat": -49.24246660852076,
        "lon": 35.4323406568835,
        "alt_km": 406.9393784452077,
        "timestamp": "2025-12-20T14:38:00.719122+00:00",
        "meta_object_name": "HRC MONOBLOCK CAMERA",
        "meta_object_id": "1998-067XR",
        "meta_epoch": "2025-12-20T01:04:16.027680",
        "meta_mean_motion": 15.54630593,
        "meta_eccentricity": 0.00024821,
        "meta_inclination": 51.6306,
        "meta_ra_of_asc_node": 105.0705,
        "meta_arg_of_pericenter": 219.0079,
        "meta_mean_anomaly": 141.0733,
        "meta_ephemeris_type": 0,
        "meta_classification_type": "U",
        "meta_norad_cat_id": 66052,
        "meta_element_set_no": 999,
        "meta_rev_at_epoch": 997,
        "meta_bstar": 0.00040363881,
        "meta_mean_motion_dot": 0.00026826,
        "meta_mean_motion_ddot": 0,
        "tle_line1": "1 66052U 98067XR  25354.04462995  .00026826  00000+0  40364-3 0  9990",
        "tle_line2": "2 66052  51.6306 105.0705 0002482 219.0079 141.0733 15.54630593  9979"
      },
      "geometry": {
        "type": "Point",
        "coordinates": [
          35.4323406568835,
          -49.24246660852076
        ]
      }
    }
  ]
}